start=new Date('2022-05-31T00:00:00.000Z').valueOf();
sats=[{"PERIAPSIS":"546.203","TLE_LINE1":"1 45370U 20019L   22150.52047758 -.00002716  00000-0 -16360-3 0  9996","SITE":"AFETR","CLASSIFICATION_TYPE":"U","RCS_SIZE":"LARGE","EPHEMERIS_TYPE":"0","COUNTRY_CODE":"US","INCLINATION":"53.0537","APOAPSIS":"548.348","TIME_SYSTEM":"UTC","LAUNCH_DATE":"2020-03-18","OBJECT_TYPE":"PAYLOAD","MEAN_ANOMALY":"301.9258","ELEMENT_SET_NO":"999","MEAN_ELEMENT_THEORY":"SGP4","MEAN_MOTION_DDOT":"0.0000000000000","NORAD_CAT_ID":"45370","RA_OF_ASC_NODE":"237.9593","ECCENTRICITY":"0.00015490","PERIOD":"95.593","EPOCH":"2022-05-30T12:29:29.262912","SEMIMAJOR_AXIS":"6925.411","MEAN_MOTION":"15.06379779","ARG_OF_PERICENTER":"58.1882","CENTER_NAME":"EARTH","FILE":"3472495","DECAY_DATE":null,"REV_AT_EPOCH":"12186","MEAN_MOTION_DOT":"-0.00002716","REF_FRAME":"TEME","GP_ID":"204940053","OBJECT_ID":"2020-019L","OBJECT_NAME":"STARLINK-1281","BSTAR":"-0.00016360000000","TLE_LINE2":"2 45370  53.0537 237.9593 0001549  58.1882 301.9258 15.06379779121863"},{"ARG_OF_PERICENTER":"71.8311","MEAN_MOTION":"15.06379995","SEMIMAJOR_AXIS":"6925.410","FILE":"3472994","CENTER_NAME":"EARTH","GP_ID":"204975023","REF_FRAME":"TEME","MEAN_MOTION_DOT":"-0.00002609","DECAY_DATE":null,"REV_AT_EPOCH":"12185","BSTAR":"-0.00015641000000","TLE_LINE2":"2 45371  53.0552 238.1215 0001373  71.8311 288.2827 15.06379995121857","OBJECT_NAME":"STARLINK-1287","OBJECT_ID":"2020-019M","CLASSIFICATION_TYPE":"U","SITE":"AFETR","PERIAPSIS":"546.324","TLE_LINE1":"1 45371U 20019M   22150.48361493 -.00002609  00000-0 -15641-3 0  9999","OBJECT_TYPE":"PAYLOAD","LAUNCH_DATE":"2020-03-18","MEAN_ANOMALY":"288.2827","ELEMENT_SET_NO":"999","INCLINATION":"53.0552","COUNTRY_CODE":"US","APOAPSIS":"548.226","TIME_SYSTEM":"UTC","EPHEMERIS_TYPE":"0","RCS_SIZE":"LARGE","ECCENTRICITY":"0.00013730","NORAD_CAT_ID":"45371","RA_OF_ASC_NODE":"238.1215","MEAN_MOTION_DDOT":"0.0000000000000","MEAN_ELEMENT_THEORY":"SGP4","PERIOD":"95.593","EPOCH":"2022-05-30T11:36:24.329952"},{"CENTER_NAME":"EARTH","FILE":"3472495","MEAN_MOTION":"15.06382671","SEMIMAJOR_AXIS":"6925.402","ARG_OF_PERICENTER":"53.9719","OBJECT_NAME":"STARLINK-1288","OBJECT_ID":"2020-019N","TLE_LINE2":"2 45372  53.0523 238.0571 0001454  53.9719 306.1405 15.06382671121850","BSTAR":"-0.00013082000000","MEAN_MOTION_DOT":"-0.00002229","REV_AT_EPOCH":"12185","DECAY_DATE":null,"GP_ID":"204939051","REF_FRAME":"TEME","EPHEMERIS_TYPE":"0","RCS_SIZE":"LARGE","MEAN_ANOMALY":"306.1405","ELEMENT_SET_NO":"999","OBJECT_TYPE":"PAYLOAD","LAUNCH_DATE":"2020-03-18","TIME_SYSTEM":"UTC","APOAPSIS":"548.274","COUNTRY_CODE":"US","INCLINATION":"53.0523","CLASSIFICATION_TYPE":"U","SITE":"AFETR","TLE_LINE1":"1 45372U 20019N   22150.49836481 -.00002229  00000-0 -13082-3 0  9990","PERIAPSIS":"546.260","EPOCH":"2022-05-30T11:57:38.719584","PERIOD":"95.593","MEAN_ELEMENT_THEORY":"SGP4","MEAN_MOTION_DDOT":"0.0000000000000","ECCENTRICITY":"0.00014540","RA_OF_ASC_NODE":"238.0571","NORAD_CAT_ID":"45372"},{"GP_ID":"204939303","REF_FRAME":"TEME","REV_AT_EPOCH":"12186","DECAY_DATE":null,"MEAN_MOTION_DOT":"-0.00002089","TLE_LINE2":"2 45373  53.0541 237.8284 0001320  67.4183 292.6945 15.06379833121861","BSTAR":"-0.00012144000000","OBJECT_ID":"2020-019P","OBJECT_NAME":"STARLINK-1295","ARG_OF_PERICENTER":"67.4183","SEMIMAJOR_AXIS":"6925.410","MEAN_MOTION":"15.06379833","FILE":"3472495","CENTER_NAME":"EARTH","RA_OF_ASC_NODE":"237.8284","NORAD_CAT_ID":"45373","ECCENTRICITY":"0.00013200","MEAN_MOTION_DDOT":"0.0000000000000","MEAN_ELEMENT_THEORY":"SGP4","EPOCH":"2022-05-30T13:06:38.635200","PERIOD":"95.593","TLE_LINE1":"1 45373U 20019P   22150.54628050 -.00002089  00000-0 -12144-3 0  9990","PERIAPSIS":"546.361","SITE":"AFETR","CLASSIFICATION_TYPE":"U","TIME_SYSTEM":"UTC","APOAPSIS":"548.190","COUNTRY_CODE":"US","INCLINATION":"53.0541","MEAN_ANOMALY":"292.6945","ELEMENT_SET_NO":"999","OBJECT_TYPE":"PAYLOAD","LAUNCH_DATE":"2020-03-18","RCS_SIZE":"LARGE","EPHEMERIS_TYPE":"0"},{"TLE_LINE2":"2 45374  53.0541 236.9557 0001364  74.3794 285.7345 15.06382808121894","BSTAR":"-0.00016427000000","OBJECT_ID":"2020-019Q","OBJECT_NAME":"STARLINK-1300","GP_ID":"204974774","REF_FRAME":"TEME","DECAY_DATE":null,"REV_AT_EPOCH":"12189","MEAN_MOTION_DOT":"-0.00002726","FILE":"3472994","CENTER_NAME":"EARTH","ARG_OF_PERICENTER":"74.3794","SEMIMAJOR_AXIS":"6925.401","MEAN_MOTION":"15.06382808","PERIOD":"95.593","EPOCH":"2022-05-30T17:47:56.726592","NORAD_CAT_ID":"45374","RA_OF_ASC_NODE":"236.9557","ECCENTRICITY":"0.00013640","MEAN_ELEMENT_THEORY":"SGP4","MEAN_MOTION_DDOT":"0.0000000000000","INCLINATION":"53.0541","COUNTRY_CODE":"US","APOAPSIS":"548.211","TIME_SYSTEM":"UTC","LAUNCH_DATE":"2020-03-18","OBJECT_TYPE":"PAYLOAD","ELEMENT_SET_NO":"999","MEAN_ANOMALY":"285.7345","RCS_SIZE":"LARGE","EPHEMERIS_TYPE":"0","PERIAPSIS":"546.322","TLE_LINE1":"1 45374U 20019Q   22150.74162878 -.00002726  00000-0 -16427-3 0  9990","SITE":"AFETR","CLASSIFICATION_TYPE":"U"},{"MEAN_MOTION_DOT":"-0.00002150","DECAY_DATE":null,"REV_AT_EPOCH":"12187","REF_FRAME":"TEME","GP_ID":"204975523","OBJECT_NAME":"STARLINK-1302","OBJECT_ID":"2020-019R","TLE_LINE2":"2 45375  53.0537 237.4831 0001509  64.1680 295.9465 15.06382990121879","BSTAR":"-0.00012554000000","MEAN_MOTION":"15.06382990","SEMIMAJOR_AXIS":"6925.401","ARG_OF_PERICENTER":"64.1680","CENTER_NAME":"EARTH","FILE":"3472994","MEAN_MOTION_DDOT":"0.0000000000000","MEAN_ELEMENT_THEORY":"SGP4","ECCENTRICITY":"0.00015090","NORAD_CAT_ID":"45375","RA_OF_ASC_NODE":"237.4831","PERIOD":"95.593","EPOCH":"2022-05-30T14:58:05.892384","CLASSIFICATION_TYPE":"U","SITE":"AFETR","PERIAPSIS":"546.221","TLE_LINE1":"1 45375U 20019R   22150.62367931 -.00002150  00000-0 -12554-3 0  9993","EPHEMERIS_TYPE":"0","RCS_SIZE":"LARGE","OBJECT_TYPE":"PAYLOAD","LAUNCH_DATE":"2020-03-18","MEAN_ANOMALY":"295.9465","ELEMENT_SET_NO":"999","COUNTRY_CODE":"US","INCLINATION":"53.0537","TIME_SYSTEM":"UTC","APOAPSIS":"548.311"},{"MEAN_MOTION_DOT":"-0.00001717","REV_AT_EPOCH":"12188","DECAY_DATE":null,"REF_FRAME":"TEME","GP_ID":"204975772","OBJECT_NAME":"STARLINK-1304","OBJECT_ID":"2020-019S","TLE_LINE2":"2 45376  53.0533 237.1143 0001515  81.7225 278.3936 15.06389277121880","BSTAR":"-0.00009644400000","MEAN_MOTION":"15.06389277","SEMIMAJOR_AXIS":"6925.381","ARG_OF_PERICENTER":"81.7225","CENTER_NAME":"EARTH","FILE":"3472994","MEAN_MOTION_DDOT":"0.0000000000000","MEAN_ELEMENT_THEORY":"SGP4","ECCENTRICITY":"0.00015150","RA_OF_ASC_NODE":"237.1143","NORAD_CAT_ID":"45376","EPOCH":"2022-05-30T17:00:10.048032","PERIOD":"95.593","SITE":"AFETR","CLASSIFICATION_TYPE":"U","TLE_LINE1":"1 45376U 20019S   22150.70844963 -.00001717  00000-0 -96444-4 0  9997","PERIAPSIS":"546.197","EPHEMERIS_TYPE":"0","RCS_SIZE":"LARGE","MEAN_ANOMALY":"278.3936","ELEMENT_SET_NO":"999","LAUNCH_DATE":"2020-03-18","OBJECT_TYPE":"PAYLOAD","APOAPSIS":"548.296","TIME_SYSTEM":"UTC","INCLINATION":"53.0533","COUNTRY_CODE":"US"},{"TLE_LINE1":"1 45377U 20019T   22150.60156762 -.00002491  00000-0 -14844-3 0  9993","PERIAPSIS":"546.172","SITE":"AFETR","CLASSIFICATION_TYPE":"U","TIME_SYSTEM":"UTC","APOAPSIS":"548.348","COUNTRY_CODE":"US","INCLINATION":"53.0544","MEAN_ANOMALY":"289.4644","ELEMENT_SET_NO":"999","OBJECT_TYPE":"PAYLOAD","LAUNCH_DATE":"2020-03-18","RCS_SIZE":"LARGE","EPHEMERIS_TYPE":"0","RA_OF_ASC_NODE":"237.5755","NORAD_CAT_ID":"45377","ECCENTRICITY":"0.00015710","MEAN_ELEMENT_THEORY":"SGP4","MEAN_MOTION_DDOT":"0.0000000000000","EPOCH":"2022-05-30T14:26:15.442368","PERIOD":"95.593","ARG_OF_PERICENTER":"70.6515","SEMIMAJOR_AXIS":"6925.395","MEAN_MOTION":"15.06384722","FILE":"3472994","CENTER_NAME":"EARTH","REF_FRAME":"TEME","GP_ID":"204976022","REV_AT_EPOCH":"12187","DECAY_DATE":null,"MEAN_MOTION_DOT":"-0.00002491","TLE_LINE2":"2 45377  53.0544 237.5755 0001571  70.6515 289.4644 15.06384722121875","BSTAR":"-0.00014844000000","OBJECT_ID":"2020-019T","OBJECT_NAME":"STARLINK-1305"},{"OBJECT_TYPE":"PAYLOAD","LAUNCH_DATE":"2020-03-18","MEAN_ANOMALY":"290.9679","ELEMENT_SET_NO":"999","INCLINATION":"53.0534","COUNTRY_CODE":"US","APOAPSIS":"548.281","TIME_SYSTEM":"UTC","EPHEMERIS_TYPE":"0","RCS_SIZE":"LARGE","CLASSIFICATION_TYPE":"U","SITE":"AFETR","PERIAPSIS":"546.119","TLE_LINE1":"1 45378U 20019U   22150.65682954  .00000267  00000-0  36821-4 0  9993","PERIOD":"95.592","EPOCH":"2022-05-30T15:45:50.072256","ECCENTRICITY":"0.00015610","NORAD_CAT_ID":"45378","RA_OF_ASC_NODE":"237.3349","MEAN_MOTION_DDOT":"0.0000000000000","MEAN_ELEMENT_THEORY":"SGP4","FILE":"3472994","CENTER_NAME":"EARTH","ARG_OF_PERICENTER":"69.1477","MEAN_MOTION":"15.06404561","SEMIMAJOR_AXIS":"6925.335","BSTAR":"0.00003682100000","TLE_LINE2":"2 45378  53.0534 237.3349 0001561  69.1477 290.9679 15.06404561121881","OBJECT_NAME":"STARLINK-1310","OBJECT_ID":"2020-019U","REF_FRAME":"TEME","GP_ID":"204975274","MEAN_MOTION_DOT":"0.00000267","DECAY_DATE":null,"REV_AT_EPOCH":"12188"},{"SITE":"AFETR","CLASSIFICATION_TYPE":"U","TLE_LINE1":"1 45379U 20019V   22150.72688430 -.00002842  00000-0 -17202-3 0  9991","PERIAPSIS":"546.152","ELEMENT_SET_NO":"999","MEAN_ANOMALY":"282.3478","LAUNCH_DATE":"2020-03-18","OBJECT_TYPE":"PAYLOAD","APOAPSIS":"548.346","TIME_SYSTEM":"UTC","INCLINATION":"53.0538","COUNTRY_CODE":"US","EPHEMERIS_TYPE":"0","RCS_SIZE":"LARGE","ECCENTRICITY":"0.00015840","RA_OF_ASC_NODE":"237.0180","NORAD_CAT_ID":"45379","MEAN_ELEMENT_THEORY":"SGP4","MEAN_MOTION_DDOT":"0.0000000000000","EPOCH":"2022-05-30T17:26:42.803520","PERIOD":"95.593","ARG_OF_PERICENTER":"77.7689","MEAN_MOTION":"15.06388391","SEMIMAJOR_AXIS":"6925.384","FILE":"3472994","CENTER_NAME":"EARTH","GP_ID":"204975024","REF_FRAME":"TEME","MEAN_MOTION_DOT":"-0.00002842","REV_AT_EPOCH":"12189","DECAY_DATE":null,"TLE_LINE2":"2 45379  53.0538 237.0180 0001584  77.7689 282.3478 15.06388391121896","BSTAR":"-0.00017202000000","OBJECT_NAME":"STARLINK-1319","OBJECT_ID":"2020-019V"}];
